NORAD_CAT_ID,OBJECT_NAME,OBJECT_TYPE,EPOCH,MEAN_MOTION,ECCENTRICITY,INCLINATION,RA_OF_ASC_NODE,ARG_OF_PERICENTER,MEAN_ANOMALY,BSTAR,MEAN_MOTION_DOT,MEAN_MOTION_DDOT,TLE_LINE0,TLE_LINE1,TLE_LINE2,SEMIMAJOR_AXIS,PERIOD,APOGEE,PERIGEE,DECAYED
53780.0,STARLINK-4678,PAYLOAD,2024-04-07 22:30:02,15.08843512,0.0001437,53.2169,180.1152,87.1394,272.9763,-4.0395e-05,-9.31e-06,0.0,0 STARLINK-4678,1 53780U 22111H   24098.93753433 -.00000931  00000-0 -40395-4 0  9990,2 53780  53.2169 180.1152 0001437  87.1394 272.9763 15.08843512 87903,6917.87,95.437,540.729,538.741,0.0
53780.0,STARLINK-4678,PAYLOAD,2024-04-08 14:23:53,15.08847791,0.0001457,53.2158,177.1421,84.1616,275.9543,0.00020747,3.016e-05,0.0,0 STARLINK-4678,1 53780U 22111H   24099.59992667  .00003016  00000-0  20747-3 0  9990,2 53780  53.2158 177.1421 0001457  84.1616 275.9543 15.08847791 88006,6917.857,95.437,540.73,538.714,0.0
53780.0,STARLINK-4678,PAYLOAD,2024-04-08 22:20:49,15.08841189,0.0001588,53.2144,175.6528,82.3485,277.7687,0.00018435,2.647e-05,0.0,0 STARLINK-4678,1 53780U 22111H   24099.93113153  .00002647  00000-0  18435-3 0  9993,2 53780  53.2144 175.6528 0001588  82.3485 277.7687 15.08841189 88050,6917.877,95.437,540.84,538.643,0.0
53780.0,STARLINK-4678,PAYLOAD,2024-04-09 11:03:54,15.08840903,0.0001571,53.2143,173.2738,83.3937,276.7234,0.00017259,2.46e-05,0.0,0 STARLINK-4678,1 53780U 22111H   24100.46105297  .00002460  00000-0  17259-3 0  9990,2 53780  53.2143 173.2738 0001571  83.3937 276.7234 15.08840903 88130,6917.878,95.437,540.829,538.656,0.0
53780.0,STARLINK-4678,PAYLOAD,2024-04-09 22:11:36,15.08854237,0.0001622,53.2148,171.1945,79.7136,280.4039,2.3424e-05,8.5e-07,0.0,0 STARLINK-4678,1 53780U 22111H   24100.92472795  .00000085  00000-0  23424-4 0  9994,2 53780  53.2148 171.1945 0001622  79.7136 280.4039 15.08854237 88207,6917.837,95.437,540.824,538.58,0.0
53780.0,STARLINK-4678,PAYLOAD,2024-04-10 04:33:09,15.0885521,0.0001887,53.2129,170.0057,79.1609,280.9595,-4.996e-05,-1.084e-05,0.0,0 STARLINK-4678,1 53780U 22111H   24101.18968773 -.00001084  00000-0 -49960-4 0  9994,2 53780  53.2129 170.0057 0001887  79.1609 280.9595 15.08855210 87438,6917.834,95.437,541.004,538.394,0.0
53780.0,STARLINK-4678,PAYLOAD,2024-04-10 10:54:41,15.0884911,0.0001805,53.2161,168.8131,88.2524,271.8674,1.199e-05,-9.7e-07,0.0,0 STARLINK-4678,1 53780U 22111H   24101.45464818 -.00000097  00000-0  11990-4 0  9999,2 53780  53.2161 168.8131 0001805  88.2524 271.8674 15.08849110 88282,6917.853,95.437,540.966,538.469,0.0
53780.0,STARLINK-4678,PAYLOAD,2024-04-10 22:02:23,15.08842028,0.0001621,53.2162,166.7324,86.9537,273.164,5.6383e-06,-1.98e-06,0.0,0 STARLINK-4678,1 53780U 22111H   24101.91833064 -.00000198  00000-0  56383-5 0  9991,2 53780  53.2162 166.7324 0001621  86.9537 273.1640 15.08842028 88356,6917.874,95.437,540.861,538.618,0.0
53780.0,STARLINK-4678,PAYLOAD,2024-04-11 04:23:56,15.08831115,0.0001636,53.2157,165.5431,88.8446,271.2733,7.1188e-05,8.45e-06,0.0,0 STARLINK-4678,1 53780U 22111H   24102.18329555  .00000845  00000-0  71188-4 0  9993,2 53780  53.2157 165.5431 0001636  88.8446 271.2733 15.08831115 87583,6917.908,95.438,540.904,538.641,0.0
53780.0,STARLINK-4678,PAYLOAD,2024-04-11 10:45:29,15.08835746,0.0001714,53.2174,164.3533,93.793,266.3258,-1.4986e-05,-5.27e-06,0.0,0 STARLINK-4678,1 53780U 22111H   24102.44825485 -.00000527  00000-0 -14986-4 0  9997,2 53780  53.2174 164.3533 0001714  93.7930 266.3258 15.08835746 88438,6917.893,95.438,540.944,538.573,0.0
53780.0,STARLINK-4678,PAYLOAD,2024-04-12 09:00:53,15.088379,0.0001669,53.2177,160.1908,94.0744,266.0439,1.4558e-05,-5.6e-07,0.0,0 STARLINK-4678,1 53780U 22111H   24103.37561400 -.00000056  00000-0  14558-4 0  9995,2 53780  53.2177 160.1908 0001669  94.0744 266.0439 15.08837900 87764,6917.887,95.438,540.906,538.597,0.0
53780.0,STARLINK-4678,PAYLOAD,2024-04-13 08:51:40,15.08835387,0.000162,53.2171,155.7298,101.7505,258.3669,6.9782e-05,8.23e-06,0.0,0 STARLINK-4678,1 53780U 22111H   24104.36921624  .00000823  00000-0  69782-4 0  9993,2 53780  53.2171 155.7298 0001620 101.7505 258.3669 15.08835387 88721,6917.894,95.438,540.88,538.639,0.0
53780.0,STARLINK-4678,PAYLOAD,2024-04-14 03:56:18,15.08836841,0.0001454,53.2165,152.1619,92.6261,267.4898,3.7356e-05,3.07e-06,0.0,0 STARLINK-4678,1 53780U 22111H   24105.16409957  .00000307  00000-0  37356-4 0  9991,2 53780  53.2165 152.1619 0001454  92.6261 267.4898 15.08836841 88039,6917.89,95.438,540.761,538.749,0.0
53780.0,STARLINK-4678,PAYLOAD,2024-04-14 10:17:50,15.08837135,0.0001452,53.2165,150.9727,91.284,268.8319,3.6136e-05,2.87e-06,0.0,0 STARLINK-4678,1 53780U 22111H   24105.42906003  .00000287  00000-0  36136-4 0  9996,2 53780  53.2165 150.9727 0001452  91.2840 268.8319 15.08837135 88884,6917.889,95.438,540.759,538.75,0.0
53780.0,STARLINK-4678,PAYLOAD,2024-04-15 11:44:00,15.08846425,0.0001509,53.2167,146.2136,90.3545,269.762,0.00012835,1.756e-05,0.0,0 STARLINK-4678,1 53780U 22111H   24106.48889350  .00001756  00000-0  12835-3 0  9999,2 53780  53.2167 146.2136 0001509  90.3545 269.7620 15.08846425 88239,6917.861,95.437,540.77,538.682,0.0
53780.0,STARLINK-4678,PAYLOAD,2024-04-15 19:40:56,15.08840541,0.0001676,53.2175,144.7273,102.2151,257.9029,0.00012597,1.717e-05,0.0,0 STARLINK-4678,1 53780U 22111H   24106.82009744  .00001717  00000-0  12597-3 0  9990,2 53780  53.2175 144.7273 0001676 102.2151 257.9029 15.08840541 89094,6917.879,95.438,540.903,538.584,0.0
53780.0,STARLINK-4678,PAYLOAD,2024-04-16 02:02:29,15.08840784,0.0001699,53.2175,143.5402,81.3298,278.7887,9.9203e-05,1.291e-05,0.0,0 STARLINK-4678,1 53780U 22111H   24107.08505894  .00001291  00000-0  99203-4 0  9993,2 53780  53.2175 143.5402 0001699  81.3298 278.7887 15.08840784 88326,6917.878,95.438,540.918,538.568,0.0
53780.0,STARLINK-4678,PAYLOAD,2024-04-16 09:59:24,15.08839488,0.0001575,53.217,142.0525,82.3991,277.718,5.7476e-05,6.27e-06,0.0,0 STARLINK-4678,1 53780U 22111H   24107.41626090  .00000627  00000-0  57476-4 0  9990,2 53780  53.2170 142.0525 0001575  82.3991 277.7180 15.08839488 89184,6917.882,95.438,540.837,538.657,0.0
53780.0,STARLINK-4678,PAYLOAD,2024-04-17 11:25:33,15.08858332,0.0001438,53.2156,137.2939,98.9627,261.1528,0.00010083,1.318e-05,0.0,0 STARLINK-4678,1 53780U 22111H   24108.47608539  .00001318  00000-0  10083-3 0  9995,2 53780  53.2156 137.2939 0001438  98.9627 261.1528 15.08858332 88530,6917.824,95.436,540.684,538.695,0.0
53780.0,STARLINK-4678,PAYLOAD,2024-04-18 04:54:50,15.08824777,0.0001249,53.215,134.0238,88.8489,271.2646,-8.407e-05,-1.625e-05,0.0,0 STARLINK-4678,1 53780U 22111H   24109.20474850 -.00001625  00000-0 -84070-4 0  9995,2 53780  53.2150 134.0238 0001249  88.8489 271.2646 15.08824777 88646,6917.927,95.439,540.656,538.928,0.0
53780.0,STARLINK-4678,PAYLOAD,2024-04-18 11:16:22,15.08826957,0.0001297,53.2153,132.8326,87.4557,272.6584,-8.5355e-05,-1.646e-05,0.0,0 STARLINK-4678,1 53780U 22111H   24109.46970989 -.00001646  00000-0 -85355-4 0  9997,2 53780  53.2153 132.8326 0001297  87.4557 272.6584 15.08826957 89499,6917.92,95.438,540.683,538.888,0.0
53780.0,STARLINK-4678,PAYLOAD,2024-04-19 04:45:36,15.08845855,0.0001225,53.2155,129.5596,114.8624,245.2496,9.5225e-05,1.228e-05,0.0,0 STARLINK-4678,1 53780U 22111H   24110.19834293  .00001228  00000-0  95225-4 0  9997,2 53780  53.2155 129.5596 0001225 114.8624 245.2496 15.08845855 88792,6917.862,95.437,540.575,538.88,0.0
53780.0,STARLINK-4678,PAYLOAD,2024-04-19 11:07:11,15.08808146,0.0001691,53.2164,128.3732,86.7674,273.3511,-0.00031443,-5.284e-05,0.0,0 STARLINK-4678,1 53780U 22111H   24110.46332370 -.00005284  00000-0 -31443-3 0  9995,2 53780  53.2164 128.3732 0001691  86.7674 273.3511 15.08808146 88837,6917.978,95.44,541.013,538.673,0.0
53780.0,STARLINK-4678,PAYLOAD,2024-04-20 04:36:25,15.08840593,0.0001398,53.215,125.1027,101.5014,258.6135,0.00046351,7.097e-05,0.0,0 STARLINK-4678,1 53780U 22111H   24111.19196026  .00007097  00000-0  46351-3 0  9998,2 53780  53.2150 125.1027 0001398 101.5014 258.6135 15.08840593 88944,6917.879,95.438,540.711,538.776,0.0
53780.0,STARLINK-4678,PAYLOAD,2024-04-20 10:57:35,15.09960257,0.0009449,53.2156,123.9101,1.6217,358.4805,0.040456,0.00714005,0.0,0 STARLINK-4678,1 53780U 22111H   24111.45666339  .00714005  00000-0  40456-1 0  9998,2 53780  53.2156 123.9101 0009449   1.6217 358.4805 15.09960257 88987,6914.458,95.367,542.857,529.79,0.0
53780.0,STARLINK-4678,PAYLOAD,2024-04-20 22:00:00,15.08802685,0.0001415,53.2151,121.8476,101.9021,236.9176,0.0042886,0.00068559,0.0,0 STARLINK-4678,1 53780U 22111H   24111.91667824  .00068559  00000-0  42886-2 0  9995,2 53780  53.2151 121.8476 0001415 101.9021 236.9176 15.08802685 89055,6917.994,95.44,540.838,538.881,0.0
53780.0,STARLINK-4678,PAYLOAD,2024-04-21 06:02:35,15.08853048,0.0001945,53.2165,120.3436,124.6294,235.4882,0.00029113,4.35e-05,0.0,0 STARLINK-4678,1 53780U 22111H   24112.25179745  .00004350  00000-0  29113-3 0  9991,2 53780  53.2165 120.3436 0001945 124.6294 235.4882 15.08853048 89914,6917.841,95.437,541.051,538.36,0.0
53780.0,STARLINK-4678,PAYLOAD,2024-04-22 07:28:45,15.08866827,0.0001429,53.2155,115.5855,93.4782,266.6374,0.00093773,0.00014678,0.0,0 STARLINK-4678,1 53780U 22111H   24113.31163199  .00014678  00000-0  93773-3 0  9992,2 53780  53.2155 115.5855 0001429  93.4782 266.6374 15.08866827 89265,6917.798,95.436,540.652,538.675,0.0
53780.0,STARLINK-4678,PAYLOAD,2024-04-22 23:22:36,15.08853644,0.0002359,53.2162,112.6215,54.5052,305.616,0.0009102,0.00014233,0.0,0 STARLINK-4678,1 53780U 22111H   24113.97403279  .00014233  00000-0  91020-3 0  9990,2 53780  53.2162 112.6215 0002359  54.5052 305.6160 15.08853644 89363,6917.839,95.437,541.336,538.072,0.0
53780.0,STARLINK-4678,PAYLOAD,2024-04-23 07:19:31,15.08848687,0.000141,53.2153,111.1245,89.4207,270.6947,0.00018772,2.702e-05,0.0,0 STARLINK-4678,1 53780U 22111H   24114.30522996  .00002702  00000-0  18772-3 0  9997,2 53780  53.2153 111.1245 0001410  89.4207 270.6947 15.08848687 89417,6917.854,95.437,540.694,538.743,0.0
